GALAXY 25               
1 24812C 97026A   22037.94508102  .00000088  00000-0  00000-0 0   373
2 24812   3.3682  84.9756 0003664 218.9689 239.4296  1.00270299    18
GALAXY 25           [PM]
1 24812C 97026A   22038.94453704  .00000088  00000-0  00000-0 0   382
2 24812   3.3712  84.9579 0003673 220.8468 238.3556  1.00270657    17
GALAXY 25               
1 24812C 97026A   22044.92939815  .00000088  00000-0  00000-0 0   446
2 24812   3.3857  84.9637 0003632 231.8822 227.7644  1.00271518    10
INTELSAT 5          [PM]
1 24916C 97046A   22023.00000000  .00000190  00000-0  00000-0 0   235
2 24916   6.9175  62.0694 0008212 174.2553 107.8046  1.00105390    15
INTELSAT 5              
1 24916C 97046A   22037.94508102  .00000214  00000-0  00000-0 0   371
2 24916   6.9515  61.9535 0005843 187.0161  82.0443  1.00124218    14
INTELSAT 5              
1 24916C 97046A   22044.92939815  .00000220  00000-0  00000-0 0   441
2 24916   6.9650  61.9339 0005292 191.5443  75.1585  1.00127049    12
GALAXY 11               
1 26038C 99071A   22041.00000000 -.00000072  00000-0  00000-0 0   412
2 26038   2.6908  89.4094 0000838 132.8105 184.6972  1.00271311    13
GALAXY 11               
1 26038C 99071A   22045.00000000 -.00000072  00000-0  00000-0 0   450
2 26038   2.6989  89.4382 0000839 138.0242 183.4077  1.00270540    19
INTELSAT 9              
1 26451C 00043A   22037.94508102 -.00000191  00000-0  00000-0 0   373
2 26451   6.9378  62.0977 0001045 171.7855 193.3501  1.00274591    10
INTELSAT 9          [PM]
1 26451C 00043A   22042.66651620 -.00000191  00000-0  00000-0 0   428
2 26451   6.9479  62.0971 0004237 211.7032  57.8332  1.00271546    17
INTELSAT 9              
1 26451C 00043A   22044.92939815 -.00000191  00000-0  00000-0 0   446
2 26451   6.9513  62.0767 0000710 197.2139 169.1931  1.00275266    12
INTELSAT 1R             
1 26608C 00072A   22041.00000000 -.00000047  00000-0  00000-0 0   410
2 26608   4.1283  81.1782 0001206 317.4532 258.4757  1.00273107    13
INTELSAT 1R             
1 26608C 00072A   22045.00000000 -.00000047  00000-0  00000-0 0   458
2 26608   4.1387  81.1739 0001182 316.2661 263.6312  1.00272706    12
INTELSAT 10             
1 26766C 01019A   22037.94508102  .00000127  00000-0  00000-0 0   374
2 26766   5.2708  74.4441 0004341 241.6867 338.9024  1.00274952    11
INTELSAT 10         [PM]
1 26766C 01019A   22039.64238426  .00000127  00000-0  00000-0 0   394
2 26766   5.2758  74.4506 0003305 265.5676 207.7489  1.00269267    11
INTELSAT 10             
1 26766C 01019A   22044.92939815  .00000127  00000-0  00000-0 0   447
2 26766   5.2869  74.4224 0004313 246.4636 335.3907  1.00273096    13
INTELSAT 901            
1 26824C 01024A   22037.94508102 -.00000112  00000-0  00000-0 0   370
2 26824   0.0482 273.2549 0001300  52.6837 123.8047  1.00271245    13
INTELSAT 901            
1 26824C 01024A   22044.92939815 -.00000109  00000-0  00000-0 0   449
2 26824   0.0522 275.5344 0001259  51.6337 123.8270  1.00271146    11
INTELSAT 902            
1 26900C 01039A   22037.94508102 -.00000192  00000-0  00000-0 0   379
2 26900   2.0792  90.4260 0003066 223.2708 113.4484  1.00276811    11
INTELSAT 902            
1 26900C 01039A   22044.92939815 -.00000192  00000-0  00000-0 0   442
2 26900   2.0975  90.4298 0002991 231.6389 106.3299  1.00270260    16
INTELSAT 902        [PM]
1 26900C 01039A   22047.99585648 -.00000192  00000-0  00000-0 0   476
2 26900   2.1015  90.4214 0003048 237.4732 127.4319  1.00273278    19
INTELSAT 904            
1 27380C 02007A   22037.94508102 -.00000123  00000-0  00000-0 0   372
2 27380   2.9122  87.3186 0002870 231.1950 129.2198  1.00273203    10
INTELSAT 904        [PM]
1 27380C 02007A   22044.34006944 -.00000123  00000-0  00000-0 0   449
2 27380   2.9317  74.6096 0003634 234.5496 287.0925  1.00273497    12
INTELSAT 904            
1 27380C 02007A   22044.92939815 -.00000123  00000-0  00000-0 0   445
2 27380   2.9302  87.3053 0003013 231.2525 130.4347  1.00272884    16
INTELSAT 905            
1 27438C 02027A   22037.94508102 -.00000094  00000-0  00000-0 0   375
2 27438   2.7345  88.0888 0002537 222.6877 141.9692  1.00272618    18
INTELSAT 905        [PM]
1 27438C 02027A   22044.32342593 -.00000094  00000-0  00000-0 0   443
2 27438   2.7520  84.4702 0003059 226.9936 283.7664  1.00273824    15
INTELSAT 905            
1 27438C 02027A   22044.92939815 -.00000094  00000-0  00000-0 0   448
2 27438   2.7526  88.0763 0002673 223.5320 142.3702  1.00273586    17
GALAXY 3C               
1 27445C 02030A   22041.00000000 -.00000159  00000-0  00000-0 0   410
2 27445   0.0259 318.6107 0001749   9.1186  77.2455  1.00271318    16
GALAXY 3C               
1 27445C 02030A   22045.00000000 -.00000062  00000-0  00000-0 0   451
2 27445   0.0346 309.4018 0001963  13.4806  86.0444  1.00270353    11
INTELSAT 906            
1 27513C 02041A   22037.94508102  .00000105  00000-0  00000-0 0   377
2 27513   1.7463  92.0247 0003611 239.0395 210.3229  1.00272072    18
INTELSAT 906        [PM]
1 27513C 02041A   22044.53995370  .00000105  00000-0  00000-0 0   445
2 27513   1.7640  91.4042 0003628 235.5883  75.0656  1.00270666    19
INTELSAT 906            
1 27513C 02041A   22044.92939815  .00000105  00000-0  00000-0 0   440
2 27513   1.7646  92.0410 0003619 239.7699 210.8298  1.00271200    18
GALAXY 12               
1 27715C 03013B   22037.94508102  .00000149  00000-0  00000-0 0   379
2 27715   2.9464  86.8982 0002471 233.9785  27.3649  1.00272720    14
GALAXY 12               
1 27715C 03013B   22044.92939815  .00000149  00000-0  00000-0 0   442
2 27715   2.9643  86.8955 0002542 238.8656  23.7225  1.00271067    16
GALAXY 12           [PM]
1 27715C 03013B   22046.58113426  .00000149  00000-0  00000-0 0   460
2 27715   2.9664  86.0987 0002382 238.6490 260.9989  1.00271385    17
GALAXY 23               
1 27854C 03034A   22037.94508102  .00000103  00000-0  00000-0 0   376
2 27854   0.0622 270.0494 0003109  44.8573  41.3272  1.00271209    10
GALAXY 23               
1 27854C 03034A   22044.92939815  .00000100  00000-0  00000-0 0   446
2 27854   0.0523 272.8696 0003235  52.3875  32.2332  1.00272354    11
GALAXY 23           [PM]
1 27854C 03034A   22045.59378472  .00000104  00000-0  00000-0 0   451
2 27854   0.0537 274.3279 0003305  50.9556 272.0436  1.00271431    12
GALAXY 13           [PM]
1 27954C 03044A   22036.57543982  .00000138  00000-0  00000-0 0   368
2 27954   0.0110  97.2414 0003389 104.5017  14.0717  1.00269013    12
GALAXY 13               
1 27954C 03044A   22037.94508102  .00000138  00000-0  00000-0 0   376
2 27954   0.0107  98.9387 0002612 107.4378 143.8580  1.00269586    19
GALAXY 13               
1 27954C 03044A   22044.92939815  .00000138  00000-0  00000-0 0   449
2 27954   0.0135 100.1590 0000981 216.0814  35.2388  1.00270466    10
INTELSAT 10-02          
1 28358C 04022A   22041.00000000  .00000079  00000-0  00000-0 0   417
2 28358   0.0604 271.4554 0000862  27.0869 200.4793  1.00271346    14
INTELSAT 10-02          
1 28358C 04022A   22045.00000000  .00000076  00000-0  00000-0 0   452
2 28358   0.0578 273.4992 0001108  48.5776 180.9031  1.00271157    18
GALAXY 28               
1 28702C 05022A   22041.00000000 -.00000195  00000-0  00000-0 0   411
2 28702   0.0246 322.2624 0002086  12.3517  76.4053  1.00272160    14
GALAXY 28           [PM]
1 28702C 05022A   22041.15250000  .00000058  00000-0  00000-0 0   411
2 28702   0.0195 333.8260 0002027 354.7348 137.5108  1.00274113    11
GALAXY 28               
1 28702C 05022A   22045.00000000 -.00000097  00000-0  00000-0 0   450
2 28702   0.0308 310.3822 0002292  32.5655  72.0340  1.00270194    13
GALAXY 14           [PM]
1 28790C 05030A   22037.77430556  .00000246  00000-0  00000-0 0   370
2 28790   0.9336  93.5508 0002144 215.7775 139.1681  1.00269738    10
GALAXY 14               
1 28790C 05030A   22037.94508102  .00000246  00000-0  00000-0 0   372
2 28790   0.9343  93.5416 0002143 218.1219 198.4791  1.00269848    17
GALAXY 14               
1 28790C 05030A   22044.92939815  .00000246  00000-0  00000-0 0   445
2 28790   0.9530  93.6495 0002253 228.8321 188.9022  1.00273363    15
GALAXY 14           [PM]
1 28790C 05030A   22047.19027778  .00000246  00000-0  00000-0 0   476
2 28790   0.9559  93.6980 0002368 228.8253 285.0246  1.00268753    10
GALAXY 15               
1 28884C 05041A   22037.94508102  .00000169  00000-0  00000-0 0   372
2 28884   0.0221 333.9405 0001898 335.0197  35.2710  1.00272981    17
GALAXY 15               
1 28884C 05041A   22044.92939815  .00000115  00000-0  00000-0 0   446
2 28884   0.0046 357.4703 0001816 320.0667  27.9396  1.00272564    15
GALAXY 15           [PM]
1 28884C 05041A   22045.24949074  .00000138  00000-0  00000-0 0   456
2 28884   0.0559 282.3874 0002022  36.6191 142.0193  1.00272885    11
GALAXY 16               
1 29236C 06023A   22037.94508102 -.00000109  00000-0  00000-0 0   370
2 29236   0.0001 148.3639 0002849 164.9679  64.9035  1.00272188    11
GALAXY 16           [PM]
1 29236C 06023A   22044.14744213 -.00000065  00000-0  00000-0 0   444
2 29236   0.0000 141.6249 0003014 178.1940 137.3802  1.00272631    16
GALAXY 16               
1 29236C 06023A   22044.92939815  .00000013  00000-0  00000-0 0   446
2 29236   0.0003 138.5272 0002979 182.6247  58.3258  1.00271939    16
GALAXY 16           [PM]
1 29236C 06023A   22045.54978009 -.00000036  00000-0  00000-0 0   450
2 29236   0.0019 136.1288 0003042 187.5458 279.7526  1.00272281    12
GALAXY 17               
1 31307C 07016B   22037.94508102 -.00000084  00000-0  00000-0 0   377
2 31307   0.0115  41.6886 0003308 276.0174  68.5314  1.00271676    15
GALAXY 17               
1 31307C 07016B   22044.92939815 -.00000085  00000-0  00000-0 0   441
2 31307   0.0001  50.9998 0003324 276.8243  59.6594  1.00270590    14
